#tradeName,merchantName,description,address1,address2,address3,email,phone,mobile,contact1,contact2,categoryList
Bathroom Ware1001 MTV ,MTV 潔具中心 MTV ,,"244-246 PARRAMATTA RD, ASHFIELD NSW 2131 ",,,, (02)9799 7999 ,,,,Bathroom Ware
Bathroom Ware1002 PETER WAINWRIGHT P/L ,PETER WAINWRIGHT P/L ,,"63A WESTBROOK AVE, WAHROONGA NSW 2076 ",,,,(02)9487 6145 ,,,,Bathroom Ware
Bathroom Ware1003 JNK Bathrooms  ,JNK Bathrooms  ,, 104-116 Canterbury Rd Hurlstone Park NSW 2193      ,,,,(02) 9558 4884 / (02) 9554 6025  ,,,,Bathroom Ware
Bathroom Ware1004 PLENTY TAPS & PLUMBING ,PLENTY TAPS & PLUMBING ,,"6 STATION ST, WENTWORTHVILLE NSW 2017 ",,,, (02)9896 7256 ,,,,Bathroom Ware
Bathroom Ware1005 ,爱家浴具安装,,,,,,, 0425558886 ,,,Bathroom Ware
Bathroom Ware1006 BATHROOM EFFECT ,BATHROOM EFFECT ,,"998 VICTORIA RD, WEST RYDE NSW 2114 ",,,,(02)9809 0852 ,,,,Bathroom Ware
Bathroom Ware1007 BELLEVIEW INTERIORS  ,BELLEVIEW INTERIORS  ,," 110 VICTORIA RD, DRUMMOYNE NSW 2047 ",,,,(02)9819 7652 ,,,,Bathroom Ware
Bathroom Ware1008 ELECTRICA AUSTRALIA P/L  ,電腦馬桶 ELECTRICA AUSTRALIA P/L  ,,"19/191 PARRAMATTA RD, AUBURN NSW 2144 ",,,, (02)9748 1234 ,,,,Bathroom Ware
Bathroom Ware1009 FAI ENTERPRISES ,FAI高級潔具浴室用品公司 FAI ENTERPRISES ,," 78-80 BELMORE RD, PUNCHBOWL NSW 2196 ",,,,(02)9153 0226 ,,,,Bathroom Ware
Bathroom Ware1010 ,入墙衣柜及冲凉房 ,,"6/1-15 Wentworth Rd, North, Homebush ",,,,02 9763 5899 ,,,,Bathroom Ware
Bathroom Ware1011 KINGSFORD BLINDS & AWNINGS ,KINGSFORD BLINDS & AWNINGS  ,,"1511 BOTANY RD, BOTANY NSW 2019",,,,(02)9316 5777 ,,,,Bathroom Ware
Bathroom Ware1012 KS HEALTH & CLEAN BIDET,KS HEALTH & CLEAN BIDET ,," 813-817 CANTERBURRY RD, LAKEMBA NSW 2195 ",,,,(02)9758 0471 ,,,,Bathroom Ware
Bathroom Ware1013 KS HEALTH & CLEAN BIDET,NYSAN ASIA PACIFIC P/L ,," 4-6 MEEKS RD, MARRICKVILLE NSW 2204 ",,,,(02)9519 7152 ,,,,Bathroom Ware
Bathroom Ware1014  Austpek Bathroom  ,澳华浴具 Austpek Bathroom  ,,304 Old Canterbury Rd Ashfield 2131 ,,,, 02 9797 2108 ,,,,Bathroom Ware
Bathroom Ware1015 APOLLO,APOLLO浴室用品 ,,"44 PARRAMATTA RD. ( INT. BERRY ST.), GRANVILLE NSW 2142 ",,,,(02)9682 7500 ,,,,Bathroom Ware
Bathroom Ware1016 PHONG XUONG FABRICS ,PHONG XUONG FABRICS ,,"44 MAIN ST, BLACKTOWN NSW 2148 ",,,, (02)9671 7360 ,,,,Bathroom Ware
Bathroom Ware1017,美樂廚房、牆柜、淋浴房公司 ,,"25 CARLINGFORD ST, REGENTS PARK NSW 2143 ",,,,(02)9743 7755 ,,,,Bathroom Ware
Bathroom Ware1018 ,威尼斯多工能數碼式蒸汽浴房浴室用品公司 ZH INTERNATIONAL BATHROOM  ,,"A2/290 PARRAMATTA RD, AUBURN NSW 2144 ",,,,(02)9748 8330 ,,,,Bathroom Ware
Bathroom Ware1019 DISCOUNT FACTORY DIRECT,DISCOUNT FACTORY DIRECT  ,,"9/202 SUNNYHOLT RD, BLACKTOWN NSW 2148 ",,,,(02)9621 1755 ,,,,Bathroom Ware
Bathroom Ware1020 MEDITERRANEAN PRODUCTS P/L  ,MEDITERRANEAN PRODUCTS P/L  ,,"68 PRINCES ST, RIVERSTONE NSW 2753 ",,,, (02)9627 3411 ,,,,Bathroom Ware
Bathroom Ware1021 SYTLES & RAILS P/L ,SYTLES & RAILS P/L ,,"PO BOX 6253, ALEXANDRIA NSW 2015 ",,,,(02)9519 5798 ,,,,Bathroom Ware
Bathroom Ware1022 FONDA INTERNATIONAL P/L,泛浴室器具供應店 FONDA INTERNATIONAL P/L  ,,"215 LIVERPOOL RD, ASHFIELD NSW 2131",,,,(02)9716 0725 ,,,,Bathroom Ware
Bathroom Ware1023 Vetiver Kitchens and Bathrooms  ,Vetiver Kitchens and Bathrooms  ,, Unit6/165 waldron rd chester hill ,,,, 02-82062600 ,,,,Bathroom Ware
